{"type": "FeatureCollection", "features": [ {"type": "Feature", "properties": {"norad_id": 57401, "name": "TIANMU-1 09", "group": "weather", "lat": 55.85522267353672, "lon": -119.32041282389461, "alt_km": 474.8371453878144, "timestamp": "2025-12-26T23:26:41.800414+00:00", "meta": {"OBJECT_NAME": "TIANMU-1 09", "OBJECT_ID": "2023-101C", "EPOCH": "2025-12-26T18:11:35.611584", "MEAN_MOTION": 15.28289838, "ECCENTRICITY": 0.0006104, "INCLINATION": 97.2803, "RA_OF_ASC_NODE": 49.6001, "ARG_OF_PERICENTER": 45.07, "MEAN_ANOMALY": 315.1034, "EPHEMERIS_TYPE": 0, "CLASSIFICATION_TYPE": "U", "NORAD_CAT_ID": 57401, "ELEMENT_SET_NO": 999, "REV_AT_EPOCH": 13529, "BSTAR": 0.00030633, "MEAN_MOTION_DOT": 8.375e-05, "MEAN_MOTION_DDOT": 0}, "tle": {"line1": "1 57401U 23101C   25360.75805106  .00008375  00000+0  30633-3 0  9992", "line2": "2 57401  97.2803  49.6001 0006104  45.0700 315.1034 15.28289838135296"}}, "geometry": {"type": "Point", "coordinates": [-119.32041282389461, 55.85522267353672]}}, {"type": "Feature", "properties": {"norad_id": 57402, "name": "TIANMU-1 10", "group": "weather", "lat": -64.33151511866512, "lon": 66.12345717972151, "alt_km": 489.71052098144446, "timestamp": "2025-12-26T23:26:41.800423+00:00", "meta": {"OBJECT_NAME": "TIANMU-1 10", "OBJECT_ID": "2023-101D", "EPOCH": "2025-12-26T14:18:06.573024", "MEAN_MOTION": 15.28278722, "ECCENTRICITY": 0.00078333, "INCLINATION": 97.2883, "RA_OF_ASC_NODE": 50.306, "ARG_OF_PERICENTER": 42.6013, "MEAN_ANOMALY": 317.5834, "EPHEMERIS_TYPE": 0, "CLASSIFICATION_TYPE": "U", "NORAD_CAT_ID": 57402, "ELEMENT_SET_NO": 999, "REV_AT_EPOCH": 13526, "BSTAR": 0.0002780445, "MEAN_MOTION_DOT": 7.594e-05, "MEAN_MOTION_DDOT": 0}, "tle": {"line1": "1 57402U 23101D   25360.59590941  .00007594  00000+0  27804-3 0  9991", "line2": "2 57402  97.2883  50.3060 0007833  42.6013 317.5834 15.28278722135260"}}, "geometry": {"type": "Point", "coordinates": [66.12345717972151, -64.33151511866512]}}, {"type": "Feature", "properties": {"norad_id": 57490, "name": "FENGYUN 3F", "group": "weather", "lat": 53.15456756371425, "lon": 57.23936139497807, "alt_km": 820.3888711456402, "timestamp": "2025-12-26T23:26:41.800432+00:00", "meta": {"OBJECT_NAME": "FENGYUN 3F", "OBJECT_ID": "2023-111A", "EPOCH": "2025-12-26T14:44:06.614880", "MEAN_MOTION": 14.19897205, "ECCENTRICITY": 8.614e-05, "INCLINATION": 98.7065, "RA_OF_ASC_NODE": 68.6824, "ARG_OF_PERICENTER": 117.8701, "MEAN_ANOMALY": 242.2563, "EPHEMERIS_TYPE": 0, "CLASSIFICATION_TYPE": "U", "NORAD_CAT_ID": 57490, "ELEMENT_SET_NO": 999, "REV_AT_EPOCH": 12437, "BSTAR": 5.6989476e-05, "MEAN_MOTION_DOT": 7.7e-07, "MEAN_MOTION_DDOT": 0}, "tle": {"line1": "1 57490U 23111A   25360.61396545  .00000077  00000+0  56989-4 0  9992", "line2": "2 57490  98.7065  68.6824 0000861 117.8701 242.2563 14.19897205124373"}}, "geometry": {"type": "Point", "coordinates": [57.23936139497807, 53.15456756371425]}}, {"type": "Feature", "properties": {"norad_id": 58584, "name": "ARKTIKA-M 2", "group": "weather", "lat": 62.134129267187696, "lon": -113.87964929745313, "alt_km": 37870.45745838215, "timestamp": "2025-12-26T23:26:41.800444+00:00", "meta": {"OBJECT_NAME": "ARKTIKA-M 2", "OBJECT_ID": "2023-198A", "EPOCH": "2025-12-25T18:56:09.299328", "MEAN_MOTION": 2.00602256, "ECCENTRICITY": 0.686608, "INCLINATION": 63.2255, "RA_OF_ASC_NODE": 173.4714, "ARG_OF_PERICENTER": 268.0516, "MEAN_ANOMALY": 18.8422, "EPHEMERIS_TYPE": 0, "CLASSIFICATION_TYPE": "U", "NORAD_CAT_ID": 58584, "ELEMENT_SET_NO": 999, "REV_AT_EPOCH": 1484, "BSTAR": 0, "MEAN_MOTION_DOT": 2.31e-06, "MEAN_MOTION_DDOT": 0}, "tle": {"line1": "1 58584U 23198A   25359.78899652  .00000231  00000+0  00000+0 0  9995", "line2": "2 58584  63.2255 173.4714 6866080 268.0516  18.8422  2.00602256 14849"}}, "geometry": {"type": "Point", "coordinates": [-113.87964929745313, 62.134129267187696]}}, {"type": "Feature", "properties": {"norad_id": 58645, "name": "TIANMU-1 11", "group": "weather", "lat": -63.80071881299498, "lon": 35.58041904154116, "alt_km": 495.0730341517201, "timestamp": "2025-12-26T23:26:41.800455+00:00", "meta": {"OBJECT_NAME": "TIANMU-1 11", "OBJECT_ID": "2023-205A", "EPOCH": "2025-12-26T19:00:12.738240", "MEAN_MOTION": 15.24769651, "ECCENTRICITY": 0.000759, "INCLINATION": 97.3601, "RA_OF_ASC_NODE": 20.1683, "ARG_OF_PERICENTER": 250.0547, "MEAN_ANOMALY": 109.9874, "EPHEMERIS_TYPE": 0, "CLASSIFICATION_TYPE": "U", "NORAD_CAT_ID": 58645, "ELEMENT_SET_NO": 999, "REV_AT_EPOCH": 11123, "BSTAR": 0.00027974, "MEAN_MOTION_DOT": 6.867e-05, "MEAN_MOTION_DDOT": 0}, "tle": {"line1": "1 58645U 23205A   25360.79181410  .00006867  00000+0  27974-3 0  9995", "line2": "2 58645  97.3601  20.1683 0007590 250.0547 109.9874 15.24769651111232"}}, "geometry": {"type": "Point", "coordinates": [35.58041904154116, -63.80071881299498]}}, {"type": "Feature", "properties": {"norad_id": 58646, "name": "TIANMU-1 12", "group": "weather", "lat": 38.06910980688474, "lon": -154.03960133285912, "alt_km": 488.7642951489888, "timestamp": "2025-12-26T23:26:41.800464+00:00", "meta": {"OBJECT_NAME": "TIANMU-1 12", "OBJECT_ID": "2023-205B", "EPOCH": "2025-12-26T18:06:02.085120", "MEAN_MOTION": 15.24656063, "ECCENTRICITY": 0.0006099, "INCLINATION": 97.3588, "RA_OF_ASC_NODE": 19.9321, "ARG_OF_PERICENTER": 227.9967, "MEAN_ANOMALY": 132.0751, "EPHEMERIS_TYPE": 0, "CLASSIFICATION_TYPE": "U", "NORAD_CAT_ID": 58646, "ELEMENT_SET_NO": 999, "REV_AT_EPOCH": 11121, "BSTAR": 0.00028647, "MEAN_MOTION_DOT": 7.009e-05, "MEAN_MOTION_DDOT": 0}, "tle": {"line1": "1 58646U 23205B   25360.75419080  .00007009  00000+0  28647-3 0  9996", "line2": "2 58646  97.3588  19.9321 0006099 227.9967 132.0751 15.24656063111215"}}, "geometry": {"type": "Point", "coordinates": [-154.03960133285912, 38.06910980688474]}}, {"type": "Feature", "properties": {"norad_id": 58647, "name": "TIANMU-1 13", "group": "weather", "lat": -39.88909796358977, "lon": 26.5614749961613, "alt_km": 500.1504805308241, "timestamp": "2025-12-26T23:26:41.800473+00:00", "meta": {"OBJECT_NAME": "TIANMU-1 13", "OBJECT_ID": "2023-205C", "EPOCH": "2025-12-26T14:10:15.332736", "MEAN_MOTION": 15.2469765, "ECCENTRICITY": 0.00067883, "INCLINATION": 97.3616, "RA_OF_ASC_NODE": 19.9783, "ARG_OF_PERICENTER": 207.2064, "MEAN_ANOMALY": 152.8819, "EPHEMERIS_TYPE": 0, "CLASSIFICATION_TYPE": "U", "NORAD_CAT_ID": 58647, "ELEMENT_SET_NO": 999, "REV_AT_EPOCH": 11118, "BSTAR": 0.00027701833, "MEAN_MOTION_DOT": 6.784e-05, "MEAN_MOTION_DDOT": 0}, "tle": {"line1": "1 58647U 23205C   25360.59045524  .00006784  00000+0  27702-3 0  9997", "line2": "2 58647  97.3616  19.9783 0006788 207.2064 152.8819 15.24697650111182"}}, "geometry": {"type": "Point", "coordinates": [26.5614749961613, -39.88909796358977]}}, {"type": "Feature", "properties": {"norad_id": 58648, "name": "TIANMU-1 14", "group": "weather", "lat": 49.26501493768618, "lon": 11.067550266399861, "alt_km": 492.20545729918194, "timestamp": "2025-12-26T23:26:41.800482+00:00", "meta": {"OBJECT_NAME": "TIANMU-1 14", "OBJECT_ID": "2023-205D", "EPOCH": "2025-12-26T15:21:04.737024", "MEAN_MOTION": 15.2468058, "ECCENTRICITY": 0.0007468, "INCLINATION": 97.3548, "RA_OF_ASC_NODE": 19.3624, "ARG_OF_PERICENTER": 213.1226, "MEAN_ANOMALY": 146.9545, "EPHEMERIS_TYPE": 0, "CLASSIFICATION_TYPE": "U", "NORAD_CAT_ID": 58648, "ELEMENT_SET_NO": 999, "REV_AT_EPOCH": 11119, "BSTAR": 0.00025884192, "MEAN_MOTION_DOT": 6.332e-05, "MEAN_MOTION_DDOT": 0}, "tle": {"line1": "1 58648U 23205D   25360.63963816  .00006332  00000+0  25884-3 0  9994", "line2": "2 58648  97.3548  19.3624 0007468 213.1226 146.9545 15.24680580111192"}}, "geometry": {"type": "Point", "coordinates": [11.067550266399861, 49.26501493768618]}}, {"type": "Feature", "properties": {"norad_id": 58660, "name": "TIANMU-1 19", "group": "weather", "lat": 61.10246811371271, "lon": -54.32042493415451, "alt_km": 474.7176999382473, "timestamp": "2025-12-26T23:26:41.800491+00:00", "meta": {"OBJECT_NAME": "TIANMU-1 19", "OBJECT_ID": "2023-208A", "EPOCH": "2025-12-26T13:30:02.826144", "MEAN_MOTION": 15.28102543, "ECCENTRICITY": 0.00048979, "INCLINATION": 97.4385, "RA_OF_ASC_NODE": 111.5741, "ARG_OF_PERICENTER": 194.9987, "MEAN_ANOMALY": 165.1108, "EPHEMERIS_TYPE": 0, "CLASSIFICATION_TYPE": "U", "NORAD_CAT_ID": 58660, "ELEMENT_SET_NO": 999, "REV_AT_EPOCH": 11093, "BSTAR": 0.00035351509, "MEAN_MOTION_DOT": 9.618e-05, "MEAN_MOTION_DDOT": 0}, "tle": {"line1": "1 58660U 23208A   25360.56253271  .00009618  00000+0  35352-3 0  9991", "line2": "2 58660  97.4385 111.5741 0004897 194.9987 165.1108 15.28102543110935"}}, "geometry": {"type": "Point", "coordinates": [-54.32042493415451, 61.10246811371271]}}, {"type": "Feature", "properties": {"norad_id": 58661, "name": "TIANMU-1 20", "group": "weather", "lat": -71.71642222945495, "lon": -90.82264861052204, "alt_km": 481.8769121965079, "timestamp": "2025-12-26T23:26:41.800500+00:00", "meta": {"OBJECT_NAME": "TIANMU-1 20", "OBJECT_ID": "2023-208B", "EPOCH": "2025-12-26T14:29:21.281856", "MEAN_MOTION": 15.29294696, "ECCENTRICITY": 0.00069207, "INCLINATION": 97.4322, "RA_OF_ASC_NODE": 112.0766, "ARG_OF_PERICENTER": 209.1488, "MEAN_ANOMALY": 150.9367, "EPHEMERIS_TYPE": 0, "CLASSIFICATION_TYPE": "U", "NORAD_CAT_ID": 58661, "ELEMENT_SET_NO": 999, "REV_AT_EPOCH": 11101, "BSTAR": 0.00038847181, "MEAN_MOTION_DOT": 0.00010975, "MEAN_MOTION_DDOT": 0}, "tle": {"line1": "1 58661U 23208B   25360.60371854  .00010975  00000+0  38847-3 0  9995", "line2": "2 58661  97.4322 112.0766 0006920 209.1488 150.9367 15.29294696111015"}}, "geometry": {"type": "Point", "coordinates": [-90.82264861052204, -71.71642222945495]}}]}